{
  "type": "FeatureCollection",
  "features": [
    {
      "type": "Feature",
      "properties": {
        "norad_id": 34079,
        "name": "IRIDIUM 33 DEB",
        "group": "iridium-33-debris",
        "lat": -15.915615630433953,
        "lon": 11.054515107652191,
        "alt_km": 620.9066363173615,
        "timestamp": "2025-12-05T04:52:15.675565+00:00",
        "meta_object_name": "IRIDIUM 33 DEB",
        "meta_object_id": "1997-051CN",
        "meta_epoch": "2025-12-04T14:55:55.555392",
        "meta_mean_motion": 14.83206685,
        "meta_eccentricity": 0.0006547,
        "meta_inclination": 86.3776,
        "meta_ra_of_asc_node": 12.3535,
        "meta_arg_of_pericenter": 33.0784,
        "meta_mean_anomaly": 92.0163,
        "meta_ephemeris_type": 0,
        "meta_classification_type": "U",
        "meta_norad_cat_id": 34079,
        "meta_element_set_no": 999,
        "meta_rev_at_epoch": 88857,
        "meta_bstar": 0.0036896,
        "meta_mean_motion_dot": 0.00030258,
        "meta_mean_motion_ddot": 0,
        "tle_line1": "1 34079U 97051CN  25338.62217078  .00030258  00000+0  36896-2 0  9990",
        "tle_line2": "2 34079  86.3776  12.3535 0006547  33.0784  92.0163 14.83206685888578"
      },
      "geometry": {
        "type": "Point",
        "coordinates": [
          11.054515107652191,
          -15.915615630433953
        ]
      }
    },
    {
      "type": "Feature",
      "properties": {
        "norad_id": 34088,
        "name": "IRIDIUM 33 DEB",
        "group": "iridium-33-debris",
        "lat": -46.185718093324574,
        "lon": -142.03672802955754,
        "alt_km": 598.8429190688794,
        "timestamp": "2025-12-05T04:52:15.675574+00:00",
        "meta_object_name": "IRIDIUM 33 DEB",
        "meta_object_id": "1997-051CX",
        "meta_epoch": "2025-12-04T13:54:56.791872",
        "meta_mean_motion": 14.90765151,
        "meta_eccentricity": 0.0005164,
        "meta_inclination": 86.3855,
        "meta_ra_of_asc_node": 34.4716,
        "meta_arg_of_pericenter": 207.2916,
        "meta_mean_anomaly": 276.8284,
        "meta_ephemeris_type": 0,
        "meta_classification_type": "U",
        "meta_norad_cat_id": 34088,
        "meta_element_set_no": 999,
        "meta_rev_at_epoch": 88620,
        "meta_bstar": 0.0061025,
        "meta_mean_motion_dot": 0.00060443,
        "meta_mean_motion_ddot": 0,
        "tle_line1": "1 34088U 97051CX  25338.57982398  .00060443  00000+0  61025-2 0  9999",
        "tle_line2": "2 34088  86.3855  34.4716 0005164 207.2916 276.8284 14.90765151886208"
      },
      "geometry": {
        "type": "Point",
        "coordinates": [
          -142.03672802955754,
          -46.185718093324574
        ]
      }
    },
    {
      "type": "Feature",
      "properties": {
        "norad_id": 34091,
        "name": "IRIDIUM 33 DEB",
        "group": "iridium-33-debris",
        "lat": -44.70804174139179,
        "lon": 66.65341168938595,
        "alt_km": 610.1676387248172,
        "timestamp": "2025-12-05T04:52:15.675584+00:00",
        "meta_object_name": "IRIDIUM 33 DEB",
        "meta_object_id": "1997-051DA",
        "meta_epoch": "2025-12-04T12:51:17.264736",
        "meta_mean_motion": 14.80833294,
        "meta_eccentricity": 0.0032938,
        "meta_inclination": 86.3424,
        "meta_ra_of_asc_node": 70.5888,
        "meta_arg_of_pericenter": 322.9542,
        "meta_mean_anomaly": 36.9405,
        "meta_ephemeris_type": 0,
        "meta_classification_type": "U",
        "meta_norad_cat_id": 34091,
        "meta_element_set_no": 999,
        "meta_rev_at_epoch": 87745,
        "meta_bstar": 0.012051,
        "meta_mean_motion_dot": 0.00095005,
        "meta_mean_motion_ddot": 0,
        "tle_line1": "1 34091U 97051DA  25338.53561649  .00095005  00000+0  12051-1 0  9997",
        "tle_line2": "2 34091  86.3424  70.5888 0032938 322.9542  36.9405 14.80833294877454"
      },
      "geometry": {
        "type": "Point",
        "coordinates": [
          66.65341168938595,
          -44.70804174139179
        ]
      }
    },
    {
      "type": "Feature",
      "properties": {
        "norad_id": 34097,
        "name": "IRIDIUM 33 DEB",
        "group": "iridium-33-debris",
        "lat": 27.027158668733808,
        "lon": 6.677454696819122,
        "alt_km": 715.3331417578866,
        "timestamp": "2025-12-05T04:52:15.675594+00:00",
        "meta_object_name": "IRIDIUM 33 DEB",
        "meta_object_id": "1997-051DG",
        "meta_epoch": "2025-12-04T12:00:30.087072",
        "meta_mean_motion": 14.34680478,
        "meta_eccentricity": 0.008354,
        "meta_inclination": 86.2003,
        "meta_ra_of_asc_node": 5.0446,
        "meta_arg_of_pericenter": 28.9801,
        "meta_mean_anomaly": 331.5995,
        "meta_ephemeris_type": 0,
        "meta_classification_type": "U",
        "meta_norad_cat_id": 34097,
        "meta_element_set_no": 999,
        "meta_rev_at_epoch": 87001,
        "meta_bstar": 0.0028898,
        "meta_mean_motion_dot": 8.526e-05,
        "meta_mean_motion_ddot": 0,
        "tle_line1": "1 34097U 97051DG  25338.50034823  .00008526  00000+0  28898-2 0  9998",
        "tle_line2": "2 34097  86.2003   5.0446 0083540  28.9801 331.5995 14.34680478870017"
      },
      "geometry": {
        "type": "Point",
        "coordinates": [
          6.677454696819122,
          27.027158668733808
        ]
      }
    },
    {
      "type": "Feature",
      "properties": {
        "norad_id": 34145,
        "name": "IRIDIUM 33 DEB",
        "group": "iridium-33-debris",
        "lat": 85.42565021095344,
        "lon": 99.95919203475134,
        "alt_km": 707.9702353988368,
        "timestamp": "2025-12-05T04:52:15.675603+00:00",
        "meta_object_name": "IRIDIUM 33 DEB",
        "meta_object_id": "1997-051DY",
        "meta_epoch": "2025-12-04T05:07:56.080128",
        "meta_mean_motion": 14.42196317,
        "meta_eccentricity": 0.005535,
        "meta_inclination": 86.211,
        "meta_ra_of_asc_node": 336.324,
        "meta_arg_of_pericenter": 120.9354,
        "meta_mean_anomaly": 239.7303,
        "meta_ephemeris_type": 0,
        "meta_classification_type": "U",
        "meta_norad_cat_id": 34145,
        "meta_element_set_no": 999,
        "meta_rev_at_epoch": 87515,
        "meta_bstar": 0.0021467,
        "meta_mean_motion_dot": 7.221e-05,
        "meta_mean_motion_ddot": 0,
        "tle_line1": "1 34145U 97051DY  25338.21384352  .00007221  00000+0  21467-2 0  9991",
        "tle_line2": "2 34145  86.2110 336.3240 0055350 120.9354 239.7303 14.42196317875151"
      },
      "geometry": {
        "type": "Point",
        "coordinates": [
          99.95919203475134,
          85.42565021095344
        ]
      }
    },
    {
      "type": "Feature",
      "properties": {
        "norad_id": 34146,
        "name": "IRIDIUM 33 DEB",
        "group": "iridium-33-debris",
        "lat": -85.47595522955545,
        "lon": -131.63169917957063,
        "alt_km": 719.6158837990406,
        "timestamp": "2025-12-05T04:52:15.675612+00:00",
        "meta_object_name": "IRIDIUM 33 DEB",
        "meta_object_id": "1997-051DZ",
        "meta_epoch": "2025-12-04T13:18:05.700096",
        "meta_mean_motion": 14.48959771,
        "meta_eccentricity": 0.0025021,
        "meta_inclination": 86.2833,
        "meta_ra_of_asc_node": 353.417,
        "meta_arg_of_pericenter": 250.9245,
        "meta_mean_anomaly": 234.6299,
        "meta_ephemeris_type": 0,
        "meta_classification_type": "U",
        "meta_norad_cat_id": 34146,
        "meta_element_set_no": 999,
        "meta_rev_at_epoch": 87988,
        "meta_bstar": 0.0021466,
        "meta_mean_motion_dot": 8.185e-05,
        "meta_mean_motion_ddot": 0,
        "tle_line1": "1 34146U 97051DZ  25338.55423264  .00008185  00000+0  21466-2 0  9994",
        "tle_line2": "2 34146  86.2833 353.4170 0025021 250.9245 234.6299 14.48959771879880"
      },
      "geometry": {
        "type": "Point",
        "coordinates": [
          -131.63169917957063,
          -85.47595522955545
        ]
      }
    },
    {
      "type": "Feature",
      "properties": {
        "norad_id": 34159,
        "name": "IRIDIUM 33 DEB",
        "group": "iridium-33-debris",
        "lat": -85.4162037768314,
        "lon": -75.8161024392144,
        "alt_km": 758.2077815298117,
        "timestamp": "2025-12-05T04:52:15.675622+00:00",
        "meta_object_name": "IRIDIUM 33 DEB",
        "meta_object_id": "1997-051EN",
        "meta_epoch": "2025-12-04T15:56:37.730112",
        "meta_mean_motion": 14.38463354,
        "meta_eccentricity": 0.0026377,
        "meta_inclination": 86.3518,
        "meta_ra_of_asc_node": 51.6842,
        "meta_arg_of_pericenter": 316.2134,
        "meta_mean_anomaly": 43.6972,
        "meta_ephemeris_type": 0,
        "meta_classification_type": "U",
        "meta_norad_cat_id": 34159,
        "meta_element_set_no": 999,
        "meta_rev_at_epoch": 87843,
        "meta_bstar": 0.00077286,
        "meta_mean_motion_dot": 2.387e-05,
        "meta_mean_motion_ddot": 0,
        "tle_line1": "1 34159U 97051EN  25338.66432558  .00002387  00000+0  77286-3 0  9996",
        "tle_line2": "2 34159  86.3518  51.6842 0026377 316.2134  43.6972 14.38463354878438"
      },
      "geometry": {
        "type": "Point",
        "coordinates": [
          -75.8161024392144,
          -85.4162037768314
        ]
      }
    }
  ]
}